2026-07-05 11:24:02,636 - main - INFO - {'constellation_id': 1, 'constellation_name': 'TerraSAR-X', 'num_sat': 1, 'num_planes': 1, 'rx_constellation': '1', 'elevation_mask': [], 'el_mask_max': [], 'uere_list': [], 'tle_file_name': '../tests/com_doppler/terrasarx.txt', 'obs_inci_angle_start': None, 'obs_inci_angle_stop': None, 'obs_swath_start': None, 'obs_swath_stop': None, 'frontal_area': None, 'mass': None}
2026-07-05 11:24:02,637 - main - INFO - ['Found satellite:', '31698', 'Kepler Elements', "{'epoch_mjd': 61068.089894, 'semi_major_axis': 6886575.424946125, 'eccentricity': 0.000195, 'inclination': 1.7007360896058743, 'right_ascension': 0.6596297374987369, 'arg_perigee': 1.4079920141688655, 'mean_anomaly': 4.877706567133592}"]
2026-07-05 11:24:02,811 - main - INFO - {'constellation_id': 1, 'station_id': 1, 'station_name': 'Kiruna', 'rx_constellation': '1', 'elevation_mask': [0.08726646259971647], 'el_mask_max': [1.5707963267948966], 'pos_eci': array([0., 0., 0.]), 'vel_eci': array([0., 0., 0.]), 'pos_ecf': array([2262086.29894541,  842161.29705744, 5883964.06989648]), 'vel_ecf': array([0., 0., 0.]), 'lla': array([1.18385683, 0.35639623, 0.        ]), 'idx_sat_in_view': []}
2026-07-05 11:24:02,812 - main - INFO - {'type': 'Static', 'user_id': 0, 'rx_constellation': '1', 'name': '', 'ltan': -1, 'sso_raan_ref': None, 'sso_raan_ref_mjd': 0.0, 'elevation_mask': [0.08726646259971647], 'el_mask_max': [1.5707963267948966], 'pos_eci': array([0., 0., 0.]), 'vel_eci': array([0., 0., 0.]), 'pos_ecf': array([3923572.96352912,  299147.24517876, 5002803.34543355]), 'vel_ecf': array([0., 0., 0.]), 'norm_ecf': 0, 'lla': array([0.90757121, 0.07609636, 0.        ]), 'num_lat': 0, 'num_lon': 0, 'idx_sat_in_view': [], 'tle_file_name': '', 'kepler': <segments.KeplerSet object at 0x000002130325F9D0>, 'metric': []}
2026-07-05 11:24:02,813 - main - INFO - Loaded simulation, start MJD: 61072.0, stop MJD: 61073.0, size time steps in sec: 30.0
2026-07-05 11:24:02,813 - main - INFO - Loaded 1 number of Station to Spacecraft links
2026-07-05 11:24:02,814 - main - INFO - Loaded 1 number of User to Spacecraft links
2026-07-05 11:24:02,814 - main - INFO - Loaded 1 number of Spacecraft to Spacecraft links
2026-07-05 11:24:02,814 - main - INFO - Finished reading configuration file
2026-07-05 11:24:02,841 - main - INFO - Simulation time: 2026-02-01 00:00:00, time step: 0
2026-07-05 11:24:02,871 - main - INFO - Simulation time: 2026-02-01 00:50:00, time step: 100
2026-07-05 11:24:02,873 - main - INFO - Simulation time: 2026-02-01 01:40:00, time step: 200
2026-07-05 11:24:02,875 - main - INFO - Simulation time: 2026-02-01 02:30:00, time step: 300
2026-07-05 11:24:02,877 - main - INFO - Simulation time: 2026-02-01 03:20:00, time step: 400
2026-07-05 11:24:02,879 - main - INFO - Simulation time: 2026-02-01 04:10:00, time step: 500
2026-07-05 11:24:02,882 - main - INFO - Simulation time: 2026-02-01 05:00:00, time step: 600
2026-07-05 11:24:02,884 - main - INFO - Simulation time: 2026-02-01 05:50:00, time step: 700
2026-07-05 11:24:02,885 - main - INFO - Simulation time: 2026-02-01 06:40:00, time step: 800
2026-07-05 11:24:02,887 - main - INFO - Simulation time: 2026-02-01 07:30:00, time step: 900
2026-07-05 11:24:02,889 - main - INFO - Simulation time: 2026-02-01 08:20:00, time step: 1000
2026-07-05 11:24:02,891 - main - INFO - Simulation time: 2026-02-01 09:10:00, time step: 1100
2026-07-05 11:24:02,893 - main - INFO - Simulation time: 2026-02-01 10:00:00, time step: 1200
2026-07-05 11:24:02,895 - main - INFO - Simulation time: 2026-02-01 10:50:00, time step: 1300
2026-07-05 11:24:02,897 - main - INFO - Simulation time: 2026-02-01 11:40:00, time step: 1400
2026-07-05 11:24:02,899 - main - INFO - Simulation time: 2026-02-01 12:30:00, time step: 1500
2026-07-05 11:24:02,901 - main - INFO - Simulation time: 2026-02-01 13:20:00, time step: 1600
2026-07-05 11:24:02,903 - main - INFO - Simulation time: 2026-02-01 14:10:00, time step: 1700
2026-07-05 11:24:02,905 - main - INFO - Simulation time: 2026-02-01 15:00:00, time step: 1800
2026-07-05 11:24:02,907 - main - INFO - Simulation time: 2026-02-01 15:50:00, time step: 1900
2026-07-05 11:24:02,909 - main - INFO - Simulation time: 2026-02-01 16:40:00, time step: 2000
2026-07-05 11:24:02,911 - main - INFO - Simulation time: 2026-02-01 17:30:00, time step: 2100
2026-07-05 11:24:02,913 - main - INFO - Simulation time: 2026-02-01 18:20:00, time step: 2200
2026-07-05 11:24:02,915 - main - INFO - Simulation time: 2026-02-01 19:10:00, time step: 2300
2026-07-05 11:24:02,917 - main - INFO - Simulation time: 2026-02-01 20:00:00, time step: 2400
2026-07-05 11:24:02,919 - main - INFO - Simulation time: 2026-02-01 20:50:00, time step: 2500
2026-07-05 11:24:02,920 - main - INFO - Simulation time: 2026-02-01 21:40:00, time step: 2600
2026-07-05 11:24:02,922 - main - INFO - Simulation time: 2026-02-01 22:30:00, time step: 2700
2026-07-05 11:24:02,924 - main - INFO - Simulation time: 2026-02-01 23:20:00, time step: 2800
2026-07-05 11:24:02,926 - main - INFO - Plotting analysis com_doppler
